54138,ONEWEB-0520,2022,109.11,148.0,+,87.91,Active,1,LEO,India,UK,Commercial,Communications,PSLV,1 54138U 22138AB  24207.14996968  .00000093  00000+0  19990-3 0  9996,2 54138  87.9124  82.6625 0001862  63.4935 296.6388 13.19726765 85541,13.19726765,0.0001862,LEO
54139,ONEWEB-0521,2022,109.11,148.0,+,87.91,Active,1,LEO,India,UK,Commercial,Communications,PSLV,1 54139U 22138AC  24207.18313445  .00000076  00000+0  15870-3 0  9998,2 54139  87.9121  82.6482 0002101  81.8823 278.2548 13.19727204 85494,13.19727204,0.0002101,LEO
54140,ONEWEB-0522,2022,109.11,148.0,+,87.91,Active,1,LEO,India,UK,Commercial,Communications,PSLV,1 54140U 22138AD  24207.16260415  .00000083  00000+0  17508-3 0  9994,2 54140  87.9121  82.6543 0001606  75.1268 285.0043 13.19726202 85530,13.19726202,0.0001606,LEO
54141,ONEWEB-0523,2022,109.03,148.0,+,87.92,Active,1,LEO,India,UK,Commercial,Communications,PSLV,1 54141U 22138AE  24207.06794253  .00000120  00000+0  26390-3 0  9997,2 54141  87.9189  52.1297 0002007 113.3959 246.7385 13.20773400 87945,13.207734,0.0002007,LEO
54142,ONEWEB-0524,2022,109.03,148.0,+,87.92,Active,1,LEO,India,UK,Commercial,Communications,PSLV,1 54142U 22138AF  24207.13266571  .00000105  00000+0  22547-3 0  9996,2 54142  87.9183  52.1205 0000918 116.4770 243.6457 13.20770806 87957,13.20770806,9.18e-05,LEO
54143,ONEWEB-0525,2022,109.11,148.0,+,87.91,Active,1,LEO,India,UK,Commercial,Communications,PSLV,1 54143U 22138AG  24207.18155399  .00000034  00000+0  52911-4 0  9997,2 54143  87.9124  82.6603 0001871  68.0215 292.1117 13.19727545 85554,13.19727545,0.0001871,LEO
54144,ONEWEB-0526,2022,109.11,148.0,+,87.91,Active,1,LEO,India,UK,Commercial,Communications,PSLV,1 54144U 22138AH  24207.21473149  .00000080  00000+0  16820-3 0  9997,2 54144  87.9125  82.6479 0001751  75.3475 284.7852 13.19725420 85534,13.1972542,0.0001751,LEO
54145,ONEWEB-0529,2022,109.11,148.0,+,87.91,Active,1,LEO,India,UK,Commercial,Communications,PSLV,1 54145U 22138AJ  24207.21789081  .00000135  00000+0  30569-3 0  9990,2 54145  87.9127  82.6657 0001771  68.2443 291.8879 13.19724806 85550,13.19724806,0.0001771,LEO
